[{"OBJECT_NAME":"OBJECT AL","OBJECT_ID":"2023-085AL","EPOCH":"2026-03-09T22:26:04.970400","MEAN_MOTION":15.31857284,"ECCENTRICITY":0.000802,"INCLINATION":97.4839,"RA_OF_ASC_NODE":180.0127,"ARG_OF_PERICENTER":78.7242,"MEAN_ANOMALY":281.49,"EPHEMERIS_TYPE":0,"CLASSIFICATION_TYPE":"U","NORAD_CAT_ID":57038,"ELEMENT_SET_NO":999,"REV_AT_EPOCH":15154,"BSTAR":0.0006591637,"MEAN_MOTION_DOT":0.00020246,"MEAN_MOTION_DDOT":0},{"OBJECT_NAME":"STARLINK-32650","OBJECT_ID":"2024-231P","EPOCH":"2026-03-09T16:12:37.159776","MEAN_MOTION":15.30203554,"ECCENTRICITY":0.00011617,"INCLINATION":53.161,"RA_OF_ASC_NODE":219.8771,"ARG_OF_PERICENTER":85.7123,"MEAN_ANOMALY":274.401,"EPHEMERIS_TYPE":0,"CLASSIFICATION_TYPE":"U","NORAD_CAT_ID":62231,"ELEMENT_SET_NO":999,"REV_AT_EPOCH":7176,"BSTAR":0.0010614358,"MEAN_MOTION_DOT":0.00031213,"MEAN_MOTION_DDOT":0}]
